{
  "norad_id": 66570,
  "name": "STARLINK-35834",
  "history": [
    {
      "epoch": "2026-05-06T17:54:34.538112Z",
      "apogee_km": 483.7581918473197,
      "perigee_km": 482.4627883211915,
      "latitude_deg": 1.9064992552324722e-05,
      "longitude_deg": -113.61013218657334,
      "height_km": 482.7853627531333,
      "semi_major_axis_km": 6861.247490084255,
      "eccentricity": 9.44e-05,
      "inclination_deg": 42.9997,
      "raan_deg": 19.6362,
      "arg_perigee_deg": 279.0076,
      "mean_anomaly_deg": 81.0669,
      "mean_motion_rev_day": 15.27559497
    },
    {
      "epoch": "2026-05-07T17:26:56.740704Z",
      "apogee_km": 483.42429149497184,
      "perigee_km": 482.74228619826044,
      "latitude_deg": -3.6760056838924443e-05,
      "longitude_deg": -113.20573894637768,
      "height_km": 482.61047268551886,
      "semi_major_axis_km": 6861.220288846616,
      "eccentricity": 4.97e-05,
      "inclination_deg": 42.9994,
      "raan_deg": 14.0999,
      "arg_perigee_deg": 316.7895,
      "mean_anomaly_deg": 43.2917,
      "mean_motion_rev_day": 15.27568581
    },
    {
      "epoch": "2026-05-08T09:08:30.870240Z",
      "apogee_km": 483.9247357946542,
      "perigee_km": 482.17513312636675,
      "latitude_deg": -4.101849360395843e-05,
      "longitude_deg": 7.060867141534466,
      "height_km": 482.72162786599637,
      "semi_major_axis_km": 6861.18693446051,
      "eccentricity": 0.0001275,
      "inclination_deg": 43.004,
      "raan_deg": 10.4032,
      "arg_perigee_deg": 276.9175,
      "mean_anomaly_deg": 83.1531,
      "mean_motion_rev_day": 15.2757972
    },
    {
      "epoch": "2026-05-09T16:31:37.613856Z",
      "apogee_km": 483.4817575439347,
      "perigee_km": 482.5074768542927,
      "latitude_deg": -2.5785734274699028e-05,
      "longitude_deg": -112.39066274991607,
      "height_km": 483.1163694474441,
      "semi_major_axis_km": 6861.131617199114,
      "eccentricity": 7.1e-05,
      "inclination_deg": 43.003,
      "raan_deg": 3.0187,
      "arg_perigee_deg": 224.8161,
      "mean_anomaly_deg": 135.2633,
      "mean_motion_rev_day": 15.27598194
    },
    {
      "epoch": "2026-05-10T16:03:58.288896Z",
      "apogee_km": 484.7454457955155,
      "perigee_km": 481.26273057915114,
      "latitude_deg": 4.207073929493711e-05,
      "longitude_deg": -111.98375320127549,
      "height_km": 482.360988265826,
      "semi_major_axis_km": 6861.141088187333,
      "eccentricity": 0.0002538,
      "inclination_deg": 43.004,
      "raan_deg": 357.4784,
      "arg_perigee_deg": 283.9943,
      "mean_anomaly_deg": 76.0627,
      "mean_motion_rev_day": 15.27595031
    },
    {
      "epoch": "2026-05-11T15:36:18.817056Z",
      "apogee_km": 483.7171387073222,
      "perigee_km": 482.33392834056303,
      "latitude_deg": -6.84743890947981e-05,
      "longitude_deg": -111.57651933667564,
      "height_km": 482.92641126603115,
      "semi_major_axis_km": 6861.162533523942,
      "eccentricity": 0.0001008,
      "inclination_deg": 42.9996,
      "raan_deg": 351.938,
      "arg_perigee_deg": 259.6225,
      "mean_anomaly_deg": 100.4512,
      "mean_motion_rev_day": 15.27587869
    },
    {
      "epoch": "2026-05-12T21:25:16.921344Z",
      "apogee_km": 483.2040592073745,
      "perigee_km": 482.8033685896835,
      "latitude_deg": -6.679229465749667e-06,
      "longitude_deg": 152.939340421843,
      "height_km": 482.6506204985452,
      "semi_major_axis_km": 6861.140713898529,
      "eccentricity": 2.92e-05,
      "inclination_deg": 43.0051,
      "raan_deg": 344.9204,
      "arg_perigee_deg": 310.1989,
      "mean_anomaly_deg": 49.8837,
      "mean_motion_rev_day": 15.27595156
    },
    {
      "epoch": "2026-05-13T06:50:13.225056Z",
      "apogee_km": 484.13885130241215,
      "perigee_km": 481.926810148987,
      "latitude_deg": -6.071784059681568e-07,
      "longitude_deg": 9.10606174702155,
      "height_km": 482.845803813625,
      "semi_major_axis_km": 6861.169830725699,
      "eccentricity": 0.0001612,
      "inclination_deg": 43.0018,
      "raan_deg": 342.7084,
      "arg_perigee_deg": 268.1397,
      "mean_anomaly_deg": 91.927,
      "mean_motion_rev_day": 15.27585432
    },
    {
      "epoch": "2026-05-14T06:22:33.865536Z",
      "apogee_km": 483.8101091375638,
      "perigee_km": 482.2047385652704,
      "latitude_deg": 1.496674764464637e-05,
      "longitude_deg": 9.514561754228023,
      "height_km": 482.73992912494367,
      "semi_major_axis_km": 6861.144423851417,
      "eccentricity": 0.00011699,
      "inclination_deg": 43.0029,
      "raan_deg": 337.1696,
      "arg_perigee_deg": 273.1657,
      "mean_anomaly_deg": 86.9061,
      "mean_motion_rev_day": 15.27593917
    },
    {
      "epoch": "2026-05-16T19:34:40.437120Z",
      "apogee_km": 483.7775442826396,
      "perigee_km": 482.2598566416973,
      "latitude_deg": 2.9151976542969995e-05,
      "longitude_deg": 154.5700232882292,
      "height_km": 482.47634020050504,
      "semi_major_axis_km": 6861.155700462168,
      "eccentricity": 0.0001106,
      "inclination_deg": 43.0022,
      "raan_deg": 322.7659,
      "arg_perigee_deg": 294.8591,
      "mean_anomaly_deg": 65.2146,
      "mean_motion_rev_day": 15.27590151
    }
  ]
}